{
  "type": "FeatureCollection",
  "features": [
    {
      "type": "Feature",
      "properties": {
        "norad_id": 66512,
        "name": "STARLINK-35366",
        "group": "last-30-days",
        "lat": 42.57711712238633,
        "lon": -95.92808242640392,
        "alt_km": 341.20206146750206,
        "timestamp": "2025-12-02T19:35:49.343441+00:00",
        "meta_object_name": "STARLINK-35366",
        "meta_object_id": "2025-263AD",
        "meta_epoch": "2025-12-02T12:00:05.998752",
        "meta_mean_motion": 15.75399668,
        "meta_eccentricity": 0.0001574,
        "meta_inclination": 42.9981,
        "meta_ra_of_asc_node": 185.56,
        "meta_arg_of_pericenter": 266.4398,
        "meta_mean_anomaly": 180.1356,
        "meta_ephemeris_type": 0,
        "meta_classification_type": "U",
        "meta_norad_cat_id": 66512,
        "meta_element_set_no": 999,
        "meta_rev_at_epoch": 399,
        "meta_bstar": -0.01186,
        "meta_mean_motion_dot": -0.01643198,
        "meta_mean_motion_ddot": 0,
        "tle_line1": "1 66512U 25263AD  25336.50006943 -.01643198  00000+0 -11860-1 0  9994",
        "tle_line2": "2 66512  42.9981 185.5600 0001574 266.4398 180.1356 15.75399668  3999"
      },
      "geometry": {
        "type": "Point",
        "coordinates": [
          -95.92808242640392,
          42.57711712238633
        ]
      }
    },
    {
      "type": "Feature",
      "properties": {
        "norad_id": 66513,
        "name": "STARLINK-35692",
        "group": "last-30-days",
        "lat": 41.66829611355055,
        "lon": -103.57275917094051,
        "alt_km": 341.1577851929205,
        "timestamp": "2025-12-02T19:35:49.343454+00:00",
        "meta_object_name": "STARLINK-35692",
        "meta_object_id": "2025-263AE",
        "meta_epoch": "2025-12-02T12:00:05.998752",
        "meta_mean_motion": 15.75404325,
        "meta_eccentricity": 0.000155,
        "meta_inclination": 42.9983,
        "meta_ra_of_asc_node": 185.5748,
        "meta_arg_of_pericenter": 284.9574,
        "meta_mean_anomaly": 155.8638,
        "meta_ephemeris_type": 0,
        "meta_classification_type": "U",
        "meta_norad_cat_id": 66513,
        "meta_element_set_no": 999,
        "meta_rev_at_epoch": 399,
        "meta_bstar": -0.011918,
        "meta_mean_motion_dot": -0.01650572,
        "meta_mean_motion_ddot": 0,
        "tle_line1": "1 66513U 25263AE  25336.50006943 -.01650572  00000+0 -11918-1 0  9993",
        "tle_line2": "2 66513  42.9983 185.5748 0001550 284.9574 155.8638 15.75404325  3999"
      },
      "geometry": {
        "type": "Point",
        "coordinates": [
          -103.57275917094051,
          41.66829611355055
        ]
      }
    },
    {
      "type": "Feature",
      "properties": {
        "norad_id": 66514,
        "name": "SENTINEL-6B",
        "group": "last-30-days",
        "lat": -33.76818878160999,
        "lon": 165.85318128423555,
        "alt_km": 1317.8968401603888,
        "timestamp": "2025-12-02T19:35:49.343464+00:00",
        "meta_object_name": "SENTINEL-6B",
        "meta_object_id": "2025-264A",
        "meta_epoch": "2025-12-02T12:19:29.316000",
        "meta_mean_motion": 12.85877401,
        "meta_eccentricity": 0.0011523,
        "meta_inclination": 66.0387,
        "meta_ra_of_asc_node": 183.7849,
        "meta_arg_of_pericenter": 268.7805,
        "meta_mean_anomaly": 91.1893,
        "meta_ephemeris_type": 0,
        "meta_classification_type": "U",
        "meta_norad_cat_id": 66514,
        "meta_element_set_no": 999,
        "meta_rev_at_epoch": 197,
        "meta_bstar": 0.00033559,
        "meta_mean_motion_dot": 2.1e-07,
        "meta_mean_motion_ddot": 0,
        "tle_line1": "1 66514U 25264A   25336.51353375  .00000021  00000+0  33559-3 0  9992",
        "tle_line2": "2 66514  66.0387 183.7849 0011523 268.7805  91.1893 12.85877401  1973"
      },
      "geometry": {
        "type": "Point",
        "coordinates": [
          165.85318128423555,
          -33.76818878160999
        ]
      }
    },
    {
      "type": "Feature",
      "properties": {
        "norad_id": 66516,
        "name": "STARLINK-35924",
        "group": "last-30-days",
        "lat": 42.1256395233413,
        "lon": -143.08360836504286,
        "alt_km": 338.75520202033294,
        "timestamp": "2025-12-02T19:35:49.343474+00:00",
        "meta_object_name": "STARLINK-35924",
        "meta_object_id": "2025-265A",
        "meta_epoch": "2025-12-02T12:00:05.998752",
        "meta_mean_motion": 15.75046728,
        "meta_eccentricity": 0.0001443,
        "meta_inclination": 42.9991,
        "meta_ra_of_asc_node": 114.9022,
        "meta_arg_of_pericenter": 266.252,
        "meta_mean_anomaly": 197.3738,
        "meta_ephemeris_type": 0,
        "meta_classification_type": "U",
        "meta_norad_cat_id": 66516,
        "meta_element_set_no": 999,
        "meta_rev_at_epoch": 332,
        "meta_bstar": -8.1474e-05,
        "meta_mean_motion_dot": -0.00012977,
        "meta_mean_motion_ddot": 0,
        "tle_line1": "1 66516U 25265A   25336.50006943 -.00012977  00000+0 -81474-4 0  9995",
        "tle_line2": "2 66516  42.9991 114.9022 0001443 266.2520 197.3738 15.75046728  3325"
      },
      "geometry": {
        "type": "Point",
        "coordinates": [
          -143.08360836504286,
          42.1256395233413
        ]
      }
    },
    {
      "type": "Feature",
      "properties": {
        "norad_id": 66517,
        "name": "STARLINK-35937",
        "group": "last-30-days",
        "lat": 41.79992981011293,
        "lon": -140.66673620605457,
        "alt_km": 338.75552533930477,
        "timestamp": "2025-12-02T19:35:49.343485+00:00",
        "meta_object_name": "STARLINK-35937",
        "meta_object_id": "2025-265B",
        "meta_epoch": "2025-12-02T12:00:05.998752",
        "meta_mean_motion": 15.74969221,
        "meta_eccentricity": 0.000163,
        "meta_inclination": 42.9992,
        "meta_ra_of_asc_node": 114.8983,
        "meta_arg_of_pericenter": 253.928,
        "meta_mean_anomaly": 211.5591,
        "meta_ephemeris_type": 0,
        "meta_classification_type": "U",
        "meta_norad_cat_id": 66517,
        "meta_element_set_no": 999,
        "meta_rev_at_epoch": 334,
        "meta_bstar": 0.00097436,
        "meta_mean_motion_dot": 0.00151445,
        "meta_mean_motion_ddot": 0,
        "tle_line1": "1 66517U 25265B   25336.50006943  .00151445  00000+0  97436-3 0  9992",
        "tle_line2": "2 66517  42.9992 114.8983 0001630 253.9280 211.5591 15.74969221  3345"
      },
      "geometry": {
        "type": "Point",
        "coordinates": [
          -140.66673620605457,
          41.79992981011293
        ]
      }
    },
    {
      "type": "Feature",
      "properties": {
        "norad_id": 66518,
        "name": "STARLINK-35962",
        "group": "last-30-days",
        "lat": 41.385044117642416,
        "lon": -138.05088462049864,
        "alt_km": 339.1604079868439,
        "timestamp": "2025-12-02T19:35:49.343495+00:00",
        "meta_object_name": "STARLINK-35962",
        "meta_object_id": "2025-265C",
        "meta_epoch": "2025-12-02T12:00:05.998752",
        "meta_mean_motion": 15.75030131,
        "meta_eccentricity": 0.0001924,
        "meta_inclination": 42.9989,
        "meta_ra_of_asc_node": 114.8927,
        "meta_arg_of_pericenter": 263.003,
        "meta_mean_anomaly": 204.4675,
        "meta_ephemeris_type": 0,
        "meta_classification_type": "U",
        "meta_norad_cat_id": 66518,
        "meta_element_set_no": 999,
        "meta_rev_at_epoch": 334,
        "meta_bstar": 2.2237e-05,
        "meta_mean_motion_dot": 2.938e-05,
        "meta_mean_motion_ddot": 0,
        "tle_line1": "1 66518U 25265C   25336.50006943  .00002938  00000+0  22237-4 0  9993",
        "tle_line2": "2 66518  42.9989 114.8927 0001924 263.0030 204.4675 15.75030131  3345"
      },
      "geometry": {
        "type": "Point",
        "coordinates": [
          -138.05088462049864,
          41.385044117642416
        ]
      }
    },
    {
      "type": "Feature",
      "properties": {
        "norad_id": 66519,
        "name": "STARLINK-35931",
        "group": "last-30-days",
        "lat": 40.932536161301115,
        "lon": -135.57487054096242,
        "alt_km": 339.0420829139921,
        "timestamp": "2025-12-02T19:35:49.343505+00:00",
        "meta_object_name": "STARLINK-35931",
        "meta_object_id": "2025-265D",
        "meta_epoch": "2025-12-02T12:00:05.998752",
        "meta_mean_motion": 15.75039299,
        "meta_eccentricity": 0.0001738,
        "meta_inclination": 42.9992,
        "meta_ra_of_asc_node": 114.8878,
        "meta_arg_of_pericenter": 260.544,
        "meta_mean_anomaly": 208.8337,
        "meta_ephemeris_type": 0,
        "meta_classification_type": "U",
        "meta_norad_cat_id": 66519,
        "meta_element_set_no": 999,
        "meta_rev_at_epoch": 334,
        "meta_bstar": 6.3277e-05,
        "meta_mean_motion_dot": 9.253e-05,
        "meta_mean_motion_ddot": 0,
        "tle_line1": "1 66519U 25265D   25336.50006943  .00009253  00000+0  63277-4 0  9990",
        "tle_line2": "2 66519  42.9992 114.8878 0001738 260.5440 208.8337 15.75039299  3342"
      },
      "geometry": {
        "type": "Point",
        "coordinates": [
          -135.57487054096242,
          40.932536161301115
        ]
      }
    }
  ]
}